HAWK-6B                 
1 55324U 23011A   26197.36210138  .00002488  00000+0  11122-3 0  9996
2 55324  40.4972 181.8706 0004316 246.4239 113.6117 15.23160082192293
HAWK-6C                 
1 55326U 23011C   26197.36146936  .00002165  00000+0  97874-4 0  9993
2 55326  40.4963 178.7100 0004830 240.0320 120.0010 15.23160464192300
HAWK-6A                 
1 55327U 23011D   26197.36150698  .00002286  00000+0  10286-3 0  9999
2 55327  40.4973 180.3367 0004429 237.1478 122.8905 15.23160255192302
HAWK-7A                 
1 56191U 23054P   26197.72012369  .00002981  00000+0  11301-3 0  9999
2 56191  97.2658  84.3065 0001252 324.0087  36.1068 15.27641958181531
HAWK-7B                 
1 56193U 23054R   26197.72005635  .00003006  00000+0  11392-3 0  9998
2 56193  97.2685  82.5808 0001152  13.1636 346.9634 15.27640355181534
HAWK-7C                 
1 56200U 23054Y   26197.65442800  .00003062  00000+0  11600-3 0  9992
2 56200  97.2660  83.2766 0000779 347.8558  12.2662 15.27642849181524
